{
    "links": {
        "self": "http://www.neowsapp.com/rest/v1/neo/3836285?api_key=iIulBulltgU6a56xZRHN4H3l9WmuAYTsLGpBGhQ2"
    },
    "id": "3836285",
    "neo_reference_id": "3836285",
    "name": "(2018 WW)",
    "designation": "2018 WW",
    "nasa_jpl_url": "http://ssd.jpl.nasa.gov/sbdb.cgi?sstr=3836285",
    "absolute_magnitude_h": 23.2,
    "estimated_diameter": {
        "kilometers": {
            "estimated_diameter_min": 0.0608912622,
            "estimated_diameter_max": 0.1361570015
        },
        "meters": {
            "estimated_diameter_min": 60.8912622106,
            "estimated_diameter_max": 136.1570015386
        },
        "miles": {
            "estimated_diameter_min": 0.0378360645,
            "estimated_diameter_max": 0.0846040122
        },
        "feet": {
            "estimated_diameter_min": 199.7744887109,
            "estimated_diameter_max": 446.7093369279
        }
    },
    "is_potentially_hazardous_asteroid": false,
    "close_approach_data": [
        {
            "close_approach_date": "2018-12-01",
            "close_approach_date_full": "2018-Dec-01 23:34",
            "epoch_date_close_approach": 1543707240000,
            "relative_velocity": {
                "kilometers_per_second": "13.3240790694",
                "kilometers_per_hour": "47966.6846497111",
                "miles_per_hour": "29804.6324702608"
            },
            "miss_distance": {
                "astronomical": "0.0838015258",
                "lunar": "32.5987935362",
                "kilometers": "12536529.762430046",
                "miles": "7789838.3747687948"
            },
            "orbiting_body": "Earth"
        },
        {
            "close_approach_date": "2021-11-15",
            "close_approach_date_full": "2021-Nov-15 12:51",
            "epoch_date_close_approach": 1636980660000,
            "relative_velocity": {
                "kilometers_per_second": "22.4684038637",
                "kilometers_per_hour": "80886.2539091566",
                "miles_per_hour": "50259.572602609"
            },
            "miss_distance": {
                "astronomical": "0.38105791",
                "lunar": "148.23152699",
                "kilometers": "57005451.6826517",
                "miles": "35421545.15672546"
            },
            "orbiting_body": "Earth"
        },
        {
            "close_approach_date": "2083-11-21",
            "close_approach_date_full": "2083-Nov-21 06:43",
            "epoch_date_close_approach": 3594004980000,
            "relative_velocity": {
                "kilometers_per_second": "19.6800754662",
                "kilometers_per_hour": "70848.2716782113",
                "miles_per_hour": "44022.3608102752"
            },
            "miss_distance": {
                "astronomical": "0.289216586",
                "lunar": "112.505251954",
                "kilometers": "43266185.23427182",
                "miles": "26884360.860198316"
            },
            "orbiting_body": "Earth"
        }
    ],
    "orbital_data": {
        "orbit_id": "2",
        "orbit_determination_date": "2018-11-27 06:42:51",
        "first_observation_date": "2018-11-18",
        "last_observation_date": "2018-11-27",
        "data_arc_in_days": 9,
        "observations_used": 31,
        "orbit_uncertainty": "8",
        "minimum_orbit_intersection": ".0377163",
        "jupiter_tisserand_invariant": "4.924",
        "epoch_osculation": "2458442.5",
        "eccentricity": ".4035852429473959",
        "semi_major_axis": "1.296734529858456",
        "inclination": "3.464381866624182",
        "ascending_node_longitude": "293.6665763518207",
        "orbital_period": "539.3554111023668",
        "perihelion_distance": ".7733916095872542",
        "perihelion_argument": "215.5633828547206",
        "aphelion_distance": "1.820077450129659",
        "perihelion_time": "2458506.840327547210",
        "mean_anomaly": "317.0551858010386",
        "mean_motion": ".6674634064840668",
        "equinox": "J2000",
        "orbit_class": {
            "orbit_class_type": "APO",
            "orbit_class_description": "Near-Earth asteroid orbits which cross the Earth’s orbit similar to that of 1862 Apollo",
            "orbit_class_range": "a (semi-major axis) > 1.0 AU; q (perihelion) < 1.017 AU"
        }
    },
    "is_sentry_object": false
}